ADRAS-J                 
1 58992U 24034A   24086.90773426  .00006895  00000+0  66713-3 0  9997
2 58992  98.2051  56.2894 0043428 321.0630  38.7462 14.92402293  5584
